ZIYUAN 3-02 (ZY 3-02)   
1 41556U 16033A   26068.93744604  .00008025  00000+0  35842-3 0  9992
2 41556  97.3895 146.5883 0010998 297.9383  62.0739 15.21559890542897
2021-050D               
1 48843U 21050D   26068.94354454  .00006210  00000+0  26175-3 0  9997
2 48843  97.3398 147.2286 0007978 192.9806 167.1228 15.23648479263854
