[{"OBJECT_NAME":"ZIYUAN 3-02 (ZY 3-02)","OBJECT_ID":"2016-033A","EPOCH":"2026-03-09T22:29:55.337856","MEAN_MOTION":15.2155989,"ECCENTRICITY":0.00109987,"INCLINATION":97.3895,"RA_OF_ASC_NODE":146.5883,"ARG_OF_PERICENTER":297.9383,"MEAN_ANOMALY":62.0739,"EPHEMERIS_TYPE":0,"CLASSIFICATION_TYPE":"U","NORAD_CAT_ID":41556,"ELEMENT_SET_NO":999,"REV_AT_EPOCH":54289,"BSTAR":0.00035842327,"MEAN_MOTION_DOT":8.025e-5,"MEAN_MOTION_DDOT":0},{"OBJECT_NAME":"OBJECT D","OBJECT_ID":"2021-050D","EPOCH":"2026-03-09T22:38:42.248256","MEAN_MOTION":15.23648479,"ECCENTRICITY":0.00079782,"INCLINATION":97.3398,"RA_OF_ASC_NODE":147.2286,"ARG_OF_PERICENTER":192.9806,"MEAN_ANOMALY":167.1228,"EPHEMERIS_TYPE":0,"CLASSIFICATION_TYPE":"U","NORAD_CAT_ID":48843,"ELEMENT_SET_NO":999,"REV_AT_EPOCH":26385,"BSTAR":0.00026174716,"MEAN_MOTION_DOT":6.21e-5,"MEAN_MOTION_DDOT":0}]
